0  STARLINK-1258
1 45381U 20019X   20193.58334491 +.00035820 +00000-0 +24661-2 0  9994
2 45381 053.0001 066.2125 0001822 094.9910 347.4248 15.05564237001763
0  STARLINK-1264
1 45382U 20019Y   20193.58334491 +.00036778 +00000-0 +25300-2 0  9999
2 45382 053.0024 066.2124 0001920 094.6214 095.7666 15.05582699001759
0  STARLINK-1266
1 45383U 20019Z   20193.58334491 +.00033038 +00000-0 +22771-2 0  9995
2 45383 053.0009 066.2132 0001818 087.9366 030.4986 15.05562546001751
0  STARLINK-1267
1 45384U 20019AA  20193.58334491 +.00030251 +00000-0 +20871-2 0  9999
2 45384 053.0001 066.2118 0001776 097.4321 074.9741 15.05568449001758
0  STARLINK-1268
1 45385U 20019AB  20193.09545347  .00028080  00000-0  27794-3 0  9999
2 45385  52.9996  52.6274 0001339  15.3704 344.7351 15.65648399 18618
0  STARLINK-1272
1 45386U 20019AC  20193.58334491 +.00043438 +00000-0 +35392-2 0  9996
2 45386 052.9998 065.4884 0001788 093.4494 025.8630 14.99089430001756
0  STARLINK-1274
1 45387U 20019AD  20193.58334491 -.00467225 +00000-0 -36429-1 0  9994
2 45387 053.0004 062.6358 0001437 078.4999 029.4429 15.02876810001753
0  STARLINK-1280
1 45388U 20019AE  20193.58334491 +.00037709 +00000-0 +30795-2 0  9994
2 45388 053.0003 085.7513 0001410 099.0816 135.5133 14.99068447001755
0  STARLINK-1283
1 45389U 20019AF  20193.58334491  .00038632  00000-0  26574-2 0  9991
2 45389  53.0005  66.2208 0001921  89.5464 244.8990 15.05560713 18454
0  STARLINK-1284
1 45390U 20019AG  20193.58334491 +.00034389 +00000-0 +23679-2 0  9991
2 45390 053.0003 066.2130 0001482 092.6879 007.6867 15.05579205001765
0  STARLINK-1289
1 45391U 20019AH  20193.58334491  .00055075  00000-0  37716-2 0  9994
2 45391  53.0004  66.2120 0001930  84.7156 303.7086 15.05560882 18182
0  STARLINK-1290
1 45392U 20019AJ  20193.58334491 +.00034773 +00000-0 +23947-2 0  9998
2 45392 052.9780 066.3417 0002090 092.0296 188.4032 15.05567058001753
0  STARLINK-1291
1 45393U 20019AK  20193.58334491 +.00029943 +00000-0 +20660-2 0  9991
2 45393 053.0016 066.2106 0001584 096.4576 112.0066 15.05571029001751
0  STARLINK-1292
1 45394U 20019AL  20193.58334491  .00036837  00000-0  25342-2 0  9994
2 45394  52.9992  66.2166 0001614  88.9170 335.5307 15.05579676 18191
0  STARLINK-1297
1 45395U 20019AM  20193.58334491  .00033199  00000-0  22888-2 0  9995
2 45395  53.0125  66.1479 0001796  88.0694 174.3733 15.05550449 18213
0  STARLINK-1303
1 45396U 20019AN  20193.58334491 -.00007458  00000-0 -49303-3 0  9999
2 45396  53.0003  66.2160 0001324  88.5974 281.8538 15.05595500 18179
0  STARLINK-1307
1 45397U 20019AP  20193.58334491 +.00036299 +00000-0 +24990-2 0  9997
2 45397 052.9824 066.3075 0001890 099.5226 198.8968 15.05559375001755
0  STARLINK-1312
1 45398U 20019AQ  20193.58334491  .00039044  00000-0  26856-2 0  9992
2 45398  52.9985  66.2178 0001435 110.9414 241.5116 15.05558330 18219
0  STARLINK-1255
1 45399U 20019AR  20193.58334491 -.00086227  00000-0 -59619-2 0  9993
2 45399  52.9993  56.2292 0001504  67.6644 150.7208 15.05636576 18408
0  STARLINK-1213
1 45400U 20019AS  20193.58334491 +.00025619 +00000-0 +17711-2 0  9999
2 45400 053.0002 056.2070 0001848 074.2280 072.2751 15.05578768001758
0  STARLINK-1256
1 45401U 20019AT  20193.58334491 +.00023771 +00000-0 +16447-2 0  9992
2 45401 052.9981 056.2067 0001514 088.3805 075.9871 15.05590039001756
0  STARLINK-1257
1 45402U 20019AU  20193.58334491 -.00039161  00000-0 -26808-2 0  9997
2 45402  52.9989  56.2144 0001514  88.0288  94.4695 15.05615691 18405
0  STARLINK-1259
1 45403U 20019AV  20193.58334491 +.00026460 +00000-0 +18282-2 0  9991
2 45403 053.0016 056.2069 0002275 088.8706 021.5872 15.05582040001763
0  STARLINK-1260
1 45404U 20019AW  20193.58334491  .00030713  00000-0  21186-2 0  9995
2 45404  53.0005  56.2091 0001470  73.6354 324.9011 15.05566958 18318
0  STARLINK-1263
1 45405U 20019AX  20193.58334491  .00026348  00000-0  18202-2 0  9990
2 45405  52.9978  56.2069 0001473  91.8917  36.4768 15.05590708 18315
0  STARLINK-1265
1 45406U 20019AY  20193.58334491 +.00029429 +00000-0 +20304-2 0  9990
2 45406 053.0005 056.2057 0001392 089.7658 344.7447 15.05581613001769
0  STARLINK-1275
1 45407U 20019AZ  20193.58334491 +.00032189 +00000-0 +22185-2 0  9997
2 45407 053.0000 056.2153 0001099 068.8707 293.5050 15.05576635001768
0  STARLINK-1278
1 45408U 20019BA  20193.58334491 +.00037983 +00000-0 +31011-2 0  9993
2 45408 052.9996 085.7188 0001455 096.3351 144.9675 14.99073970001750
0  STARLINK-1282
1 45409U 20019BB  20193.58334491  .00029413  00000-0  20290-2 0  9990
2 45409  52.9980  56.2194 0001615  76.4701 249.9524 15.05587615 18313
0  STARLINK-1285
1 45410U 20019BC  20193.58334491 +.00029139 +00000-0 +20103-2 0  9990
2 45410 052.9997 056.2060 0000963 096.7813 355.6708 15.05588864001766
0  STARLINK-1293
1 45411U 20019BD  20193.58334491 -.00572928  00000-0 -41601-1 0  9997
2 45411  53.0000  56.1459 0001473  75.3266 178.8492 15.05998809 18326
0  STARLINK-1296
1 45412U 20019BE  20193.58334491 -.00007327 +00000-0 -48460-3 0  9996
2 45412 052.9975 056.2046 0001422 076.7726 339.9757 15.05548101001769
0  STARLINK-1298
1 45413U 20019BF  20193.58334491 -.00792241 +00000-0 -57189-1 0  9999
2 45413 053.0010 056.1838 0001338 067.7275 204.2743 15.06213470001752
0  STARLINK-1309
1 45414U 20019BG  20193.58334491 +.00030987 +00000-0 +21370-2 0  9994
2 45414 052.9991 056.2191 0001713 078.2448 266.1447 15.05571998001768
0  STARLINK-1316
1 45415U 20019BH  20193.58334491  .00023346  00000-0  16167-2 0  9994
2 45415  52.9992  56.2071 0000866  83.6670 116.7150 15.05567397 18332
0  STARLINK-1318
1 45416U 20019BJ  20193.58334491 +.00031127 +00000-0 +21458-2 0  9990
2 45416 053.0002 056.2128 0001681 094.1331 286.3108 15.05583914001766
0  STARLINK-1286
1 45417U 20019BK  20193.58334491  .00040898  00000-0  29346-2 0  9990
2 45417  52.9995  86.0685 0001494  89.5359 358.3722 15.03953708 18181
0  STARLINK-1299
1 45418U 20019BL  20193.11655049 +.00000526 +00000-0 +64174-4 0  9999
2 45418 053.0033 087.5373 0001721 078.6361 281.4817 14.99138486017869
0  STARLINK-1308
1 45419U 20019BM  20193.58334491 +.00045320 +00000-0 +31126-2 0  9996
2 45419 053.0127 086.1506 0001471 093.9694 292.3647 15.05544538001769
0  STARLINK-1329
1 45531U 20025A   20193.58334491 -.00003985 +00000-0 -25454-3 0  9999
2 45531 053.0012 026.2229 0001598 098.3149 078.3968 15.05571622001759
0  STARLINK-1338
1 45532U 20025B   20193.58334491 -.00004182  00000-0 -26782-3 0  9995
2 45532  53.0115  26.1537 0002132 116.3395 348.4066 15.05602192 12966
0  STARLINK-1339
1 45533U 20025C   20193.58334491 -.00004574 +00000-0 -29485-3 0  9994
2 45533 053.0018 026.2162 0001363 092.6006 282.1328 15.05594539001760
0  STARLINK-1341
1 45534U 20025D   20193.58334491 -.00004350 +00000-0 -27950-3 0  9992
2 45534 053.0014 026.2072 0001591 093.2633 317.3702 15.05584004001766
0  STARLINK-1350
1 45535U 20025E   20193.58334491 -.00004431  00000-0 -28516-3 0  9992
2 45535  53.0010  26.2170 0001768  93.1133 209.6238 15.05577697 12952
0  STARLINK-1352
1 45536U 20025F   20193.58334491 -.00004070  00000-0 -26012-3 0  9991
2 45536  52.9999  26.2206 0001536 105.2781 179.4284 15.05609135 12952
0  STARLINK-1353
1 45537U 20025G   20193.53617191 +.00000894 +00000-0 +70319-4 0  9996
2 45537 053.0055 025.2035 0002957 061.3726 298.7562 15.11050413013553
0  STARLINK-1362
1 45538U 20025H   20193.58334491 -.00004053 +00000-0 -25890-3 0  9997
2 45538 053.0003 026.2224 0001546 108.2553 050.4397 15.05610620001753
0  STARLINK-1367
1 45539U 20025J   20193.58334491 -.00023561 +00000-0 -25099-3 0  9994
2 45539 052.9844 007.4151 0008633 059.5216 288.8466 15.62814822001772
0  STARLINK-1368
1 45540U 20025K   20193.58334491 -.00003813  00000-0 -24251-3 0  9993
2 45540  52.9996  26.2212 0001920  92.0297 174.6704 15.05597552 12956
0  STARLINK-1369
1 45541U 20025L   20193.58334491 -.00003890  00000-0 -24780-3 0  9996
2 45541  53.0007  26.2207 0002158 102.2245 146.4966 15.05600894 12958
0  STARLINK-1371
1 45542U 20025M   20193.58334491 -.00004513 +00000-0 -29064-3 0  9990
2 45542 053.0084 026.1822 0001286 092.5949 336.1591 15.05597681001767
0  STARLINK-1372
1 45543U 20025N   20193.58334491 -.00003821  00000-0 -24310-3 0  9991
2 45543  52.9988  26.2203 0001760 100.1721 130.5429 15.05594357 12950
0  STARLINK-1373
1 45544U 20025P   20193.58334491 -.00004054  00000-0 -25915-3 0  9993
2 45544  52.9956  26.2470 0001743  94.6390  46.0290 15.05584153 12941
0  STARLINK-1374
1 45545U 20025Q   20193.58334491 -.00004496 +00000-0 -28955-3 0  9991
2 45545 053.0022 026.2156 0001723 112.9473 279.7259 15.05583315001760
0  STARLINK-1375
1 45546U 20025R   20193.58334491 -.00004479 +00000-0 -28829-3 0  9993
2 45546 053.0001 026.2161 0001738 095.7968 224.9772 15.05595911001753
0  STARLINK-1377
1 45547U 20025S   20193.58334491 -.00004640 +00000-0 -29942-3 0  9991
2 45547 053.0000 026.2132 0001526 093.3783 263.3083 15.05589228001751
0  STARLINK-1378
1 45548U 20025T   20193.58334491 -.00003877  00000-0 -24693-3 0  9991
2 45548  53.0010  26.2191 0001710  96.5799 116.0642 15.05593555 12952
0  STARLINK-1379
1 45549U 20025U   20193.58334491 -.00003780  00000-0 -24033-3 0  9993
2 45549  53.0006  26.2182 0001467  98.3922  96.2859 15.05588039 12955
0  STARLINK-1390
1 45550U 20025V   20193.58334491 -.00003996  00000-0 -25510-3 0  9995
2 45550  52.9939  26.2553 0001861  96.9915  25.7368 15.05600160 12947
0  STARLINK-1294
1 45551U 20025W   20193.58334491 -.01115985 +00000-0 -30369-1 0  9995
2 45551 052.9941 008.1335 0001314 058.0846 319.9757 15.39730917001773
0  STARLINK-1322
1 45552U 20025X   20193.58334491 -.01195944  00000-0 -32486-1 0  9991
2 45552  52.9957   8.1083 0001226  60.9797 325.7871 15.39983037 13194
0  STARLINK-1323
1 45553U 20025Y   20193.58334491 -.01171672 +00000-0 -28105-1 0  9997
2 45553 052.9953 008.0938 0001274 064.9050 061.0711 15.43621035001774
0  STARLINK-1325
1 45554U 20025Z   20193.58334491 -.01201540 +00000-0 -33078-1 0  9991
2 45554 052.9967 008.1426 0001217 053.5477 315.7388 15.39593419001775
